start=new Date('2022-02-02T00:00:00.000Z').valueOf();
sats=[{"OBJECT_NAME":"STARLINK-2600","REF_FRAME":"TEME","SEMIMAJOR_AXIS":"6925.350","MEAN_ANOMALY":"297.6768","SITE":"AFETR","PERIAPSIS":"545.674","MEAN_ELEMENT_THEORY":"SGP4","EPHEMERIS_TYPE":"0","CLASSIFICATION_TYPE":"U","OBJECT_TYPE":"PAYLOAD","ECCENTRICITY":"0.00022250","DECAY_DATE":null,"TLE_LINE2":"2 48387  53.0541 226.3586 0002225  62.4447 297.6768 15.06399589 41623","OBJECT_ID":"2021-038AL","MEAN_MOTION_DDOT":"0.0000000000000","PERIOD":"95.592","ARG_OF_PERICENTER":"62.4447","MEAN_MOTION_DOT":"-0.00000170","FILE":"3289675","COUNTRY_CODE":"US","APOAPSIS":"548.756","TIME_SYSTEM":"UTC","RCS_SIZE":"LARGE","MEAN_MOTION":"15.06399589","CENTER_NAME":"EARTH","GP_ID":"195122784","RA_OF_ASC_NODE":"226.3586","ELEMENT_SET_NO":"999","REV_AT_EPOCH":"4162","BSTAR":"0.00000748670000","TLE_LINE1":"1 48387U 21038AL  22032.81456436 -.00000170  00000-0  74867-5 0  9996","LAUNCH_DATE":"2021-05-04","EPOCH":"2022-02-01T19:32:58.360704","NORAD_CAT_ID":"48387","INCLINATION":"53.0541"},{"NORAD_CAT_ID":"48388","EPOCH":"2022-02-01T20:59:15.178272","INCLINATION":"53.0546","LAUNCH_DATE":"2021-05-04","TLE_LINE1":"1 48388U 21038AM  22032.87448123  .00001722  00000-0  13450-3 0  9999","BSTAR":"0.00013450000000","REV_AT_EPOCH":"4163","MEAN_MOTION":"15.06398599","RCS_SIZE":"LARGE","TIME_SYSTEM":"UTC","APOAPSIS":"548.477","ELEMENT_SET_NO":"999","GP_ID":"195123034","CENTER_NAME":"EARTH","RA_OF_ASC_NODE":"226.0758","OBJECT_ID":"2021-038AM","TLE_LINE2":"2 48388  53.0546 226.0758 0001818  76.2792 283.8399 15.06398599 41638","DECAY_DATE":null,"COUNTRY_CODE":"US","FILE":"3289675","ARG_OF_PERICENTER":"76.2792","PERIOD":"95.592","MEAN_MOTION_DDOT":"0.0000000000000","MEAN_MOTION_DOT":"0.00001722","MEAN_ELEMENT_THEORY":"SGP4","OBJECT_TYPE":"PAYLOAD","ECCENTRICITY":"0.00018180","CLASSIFICATION_TYPE":"U","EPHEMERIS_TYPE":"0","PERIAPSIS":"545.959","SITE":"AFETR","REF_FRAME":"TEME","OBJECT_NAME":"STARLINK-2594","MEAN_ANOMALY":"283.8399","SEMIMAJOR_AXIS":"6925.353"},{"MEAN_ANOMALY":"284.5991","SEMIMAJOR_AXIS":"6925.343","REF_FRAME":"TEME","OBJECT_NAME":"STARLINK-1904","PERIAPSIS":"545.797","SITE":"AFETR","OBJECT_TYPE":"PAYLOAD","ECCENTRICITY":"0.00020380","EPHEMERIS_TYPE":"0","CLASSIFICATION_TYPE":"U","MEAN_ELEMENT_THEORY":"SGP4","COUNTRY_CODE":"US","FILE":"3289675","ARG_OF_PERICENTER":"75.5224","PERIOD":"95.592","MEAN_MOTION_DDOT":"0.0000000000000","MEAN_MOTION_DOT":"0.00001653","OBJECT_ID":"2021-038AN","TLE_LINE2":"2 48389  53.0550 221.4295 0002038  75.5224 284.5991 15.06401677 41689","DECAY_DATE":null,"ELEMENT_SET_NO":"999","GP_ID":"195123286","RA_OF_ASC_NODE":"221.4295","CENTER_NAME":"EARTH","RCS_SIZE":"LARGE","MEAN_MOTION":"15.06401677","APOAPSIS":"548.620","TIME_SYSTEM":"UTC","BSTAR":"0.00012986000000","REV_AT_EPOCH":"4168","LAUNCH_DATE":"2021-05-04","TLE_LINE1":"1 48389U 21038AN  22032.79570638  .00001653  00000-0  12986-3 0  9994","INCLINATION":"53.0550","NORAD_CAT_ID":"48389","EPOCH":"2022-02-01T19:05:49.031232"},{"MEAN_ANOMALY":"286.9039","SEMIMAJOR_AXIS":"6925.325","REF_FRAME":"TEME","OBJECT_NAME":"STARLINK-2586","PERIAPSIS":"545.869","SITE":"AFETR","OBJECT_TYPE":"PAYLOAD","ECCENTRICITY":"0.00019080","EPHEMERIS_TYPE":"0","CLASSIFICATION_TYPE":"U","MEAN_ELEMENT_THEORY":"SGP4","FILE":"3289675","COUNTRY_CODE":"US","PERIOD":"95.592","MEAN_MOTION_DOT":"0.00001980","MEAN_MOTION_DDOT":"0.0000000000000","ARG_OF_PERICENTER":"73.2159","OBJECT_ID":"2021-038AP","DECAY_DATE":null,"TLE_LINE2":"2 48390  53.0550 221.4569 0001908  73.2159 286.9039 15.06407556 42909","ELEMENT_SET_NO":"999","GP_ID":"195124028","RA_OF_ASC_NODE":"221.4569","CENTER_NAME":"EARTH","MEAN_MOTION":"15.06407556","RCS_SIZE":"LARGE","APOAPSIS":"548.512","TIME_SYSTEM":"UTC","BSTAR":"0.00015176000000","REV_AT_EPOCH":"4290","LAUNCH_DATE":"2021-05-04","TLE_LINE1":"1 48390U 21038AP  22032.79201229  .00001980  00000-0  15176-3 0  9990","INCLINATION":"53.0550","NORAD_CAT_ID":"48390","EPOCH":"2022-02-01T19:00:29.861856"},{"MEAN_ELEMENT_THEORY":"SGP4","CLASSIFICATION_TYPE":"U","EPHEMERIS_TYPE":"0","OBJECT_TYPE":"PAYLOAD","ECCENTRICITY":"0.00019080","TLE_LINE2":"2 48391  53.0547 221.4700 0001908  69.3822 290.7371 15.06405578 42900","DECAY_DATE":null,"OBJECT_ID":"2021-038AQ","MEAN_MOTION_DDOT":"0.0000000000000","PERIOD":"95.592","ARG_OF_PERICENTER":"69.3822","MEAN_MOTION_DOT":"0.00002241","COUNTRY_CODE":"US","FILE":"3289675","OBJECT_NAME":"STARLINK-2607","REF_FRAME":"TEME","SEMIMAJOR_AXIS":"6925.331","MEAN_ANOMALY":"290.7371","SITE":"AFETR","PERIAPSIS":"545.875","TLE_LINE1":"1 48391U 21038AQ  22032.78832997  .00002241  00000-0  16926-3 0  9997","LAUNCH_DATE":"2021-05-04","EPOCH":"2022-02-01T18:55:11.709408","NORAD_CAT_ID":"48391","INCLINATION":"53.0547","APOAPSIS":"548.518","TIME_SYSTEM":"UTC","MEAN_MOTION":"15.06405578","RCS_SIZE":"LARGE","CENTER_NAME":"EARTH","GP_ID":"195122285","RA_OF_ASC_NODE":"221.4700","ELEMENT_SET_NO":"999","REV_AT_EPOCH":"4290","BSTAR":"0.00016926000000"},{"OBJECT_ID":"2021-038AR","DECAY_DATE":null,"TLE_LINE2":"2 48392  53.0549 221.1872 0001948  77.4409 282.6798 15.06402331 42913","FILE":"3289675","COUNTRY_CODE":"US","PERIOD":"95.592","MEAN_MOTION_DDOT":"0.0000000000000","ARG_OF_PERICENTER":"77.4409","MEAN_MOTION_DOT":"0.00001506","MEAN_ELEMENT_THEORY":"SGP4","ECCENTRICITY":"0.00019480","OBJECT_TYPE":"PAYLOAD","CLASSIFICATION_TYPE":"U","EPHEMERIS_TYPE":"0","PERIAPSIS":"545.857","SITE":"AFETR","REF_FRAME":"TEME","OBJECT_NAME":"STARLINK-2605","MEAN_ANOMALY":"282.6798","SEMIMAJOR_AXIS":"6925.341","NORAD_CAT_ID":"48392","EPOCH":"2022-02-01T20:25:24.931200","INCLINATION":"53.0549","LAUNCH_DATE":"2021-05-04","TLE_LINE1":"1 48392U 21038AR  22032.85098300  .00001506  00000-0  11995-3 0  9992","BSTAR":"0.00011995000000","REV_AT_EPOCH":"4291","RCS_SIZE":"LARGE","MEAN_MOTION":"15.06402331","APOAPSIS":"548.555","TIME_SYSTEM":"UTC","ELEMENT_SET_NO":"999","CENTER_NAME":"EARTH","GP_ID":"195122535","RA_OF_ASC_NODE":"221.1872"},{"BSTAR":"0.00010181000000","REV_AT_EPOCH":"4292","ELEMENT_SET_NO":"999","RA_OF_ASC_NODE":"220.9172","GP_ID":"195123786","CENTER_NAME":"EARTH","MEAN_MOTION":"15.06391605","RCS_SIZE":"LARGE","TIME_SYSTEM":"UTC","APOAPSIS":"548.509","INCLINATION":"53.0556","NORAD_CAT_ID":"48393","EPOCH":"2022-02-01T21:55:39.689184","LAUNCH_DATE":"2021-05-04","TLE_LINE1":"1 48393U 21038AS  22032.91365381  .00001235  00000-0  10181-3 0  9991","PERIAPSIS":"545.970","SITE":"AFETR","MEAN_ANOMALY":"284.2128","SEMIMAJOR_AXIS":"6925.374","REF_FRAME":"TEME","OBJECT_NAME":"STARLINK-2602","FILE":"3289675","COUNTRY_CODE":"US","MEAN_MOTION_DOT":"0.00001235","PERIOD":"95.593","MEAN_MOTION_DDOT":"0.0000000000000","ARG_OF_PERICENTER":"75.9064","OBJECT_ID":"2021-038AS","DECAY_DATE":null,"TLE_LINE2":"2 48393  53.0556 220.9172 0001833  75.9064 284.2128 15.06391605 42922","OBJECT_TYPE":"PAYLOAD","ECCENTRICITY":"0.00018330","EPHEMERIS_TYPE":"0","CLASSIFICATION_TYPE":"U","MEAN_ELEMENT_THEORY":"SGP4"},{"FILE":"3289675","COUNTRY_CODE":"US","PERIOD":"95.592","ARG_OF_PERICENTER":"75.3251","MEAN_MOTION_DDOT":"0.0000000000000","MEAN_MOTION_DOT":"0.00001507","OBJECT_ID":"2021-038AT","DECAY_DATE":null,"TLE_LINE2":"2 48394  53.0545 220.9177 0002136  75.3251 284.7974 15.06402036 42920","ECCENTRICITY":"0.00021360","OBJECT_TYPE":"PAYLOAD","EPHEMERIS_TYPE":"0","CLASSIFICATION_TYPE":"U","MEAN_ELEMENT_THEORY":"SGP4","PERIAPSIS":"545.728","SITE":"AFETR","MEAN_ANOMALY":"284.7974","SEMIMAJOR_AXIS":"6925.342","REF_FRAME":"TEME","OBJECT_NAME":"STARLINK-2573","INCLINATION":"53.0545","NORAD_CAT_ID":"48394","EPOCH":"2022-02-01T21:50:20.597568","LAUNCH_DATE":"2021-05-04","TLE_LINE1":"1 48394U 21038AT  22032.90996062  .00001507  00000-0  12007-3 0  9998","BSTAR":"0.00012007000000","REV_AT_EPOCH":"4292","ELEMENT_SET_NO":"999","CENTER_NAME":"EARTH","GP_ID":"195123529","RA_OF_ASC_NODE":"220.9177","RCS_SIZE":"LARGE","MEAN_MOTION":"15.06402036","TIME_SYSTEM":"UTC","APOAPSIS":"548.687"},{"BSTAR":"-0.00001535200000","REV_AT_EPOCH":"4292","RCS_SIZE":"LARGE","MEAN_MOTION":"15.06393289","APOAPSIS":"548.758","TIME_SYSTEM":"UTC","ELEMENT_SET_NO":"999","CENTER_NAME":"EARTH","GP_ID":"195122785","RA_OF_ASC_NODE":"220.9879","NORAD_CAT_ID":"48395","EPOCH":"2022-02-01T21:27:45.627840","INCLINATION":"53.0532","LAUNCH_DATE":"2021-05-04","TLE_LINE1":"1 48395U 21038AU  22032.89427810 -.00000510  00000-0 -15352-4 0  9999","PERIAPSIS":"545.710","SITE":"AFETR","REF_FRAME":"TEME","OBJECT_NAME":"STARLINK-2574","MEAN_ANOMALY":"290.1334","SEMIMAJOR_AXIS":"6925.369","OBJECT_ID":"2021-038AU","TLE_LINE2":"2 48395  53.0532 220.9879 0002201  69.9892 290.1334 15.06393289 42929","DECAY_DATE":null,"COUNTRY_CODE":"US","FILE":"3289675","PERIOD":"95.593","MEAN_MOTION_DOT":"-0.00000510","MEAN_MOTION_DDOT":"0.0000000000000","ARG_OF_PERICENTER":"69.9892","MEAN_ELEMENT_THEORY":"SGP4","ECCENTRICITY":"0.00022010","OBJECT_TYPE":"PAYLOAD","EPHEMERIS_TYPE":"0","CLASSIFICATION_TYPE":"U"},{"TIME_SYSTEM":"UTC","APOAPSIS":"548.500","RCS_SIZE":"LARGE","MEAN_MOTION":"15.06403225","GP_ID":"195123035","CENTER_NAME":"EARTH","RA_OF_ASC_NODE":"220.9376","ELEMENT_SET_NO":"999","REV_AT_EPOCH":"4292","BSTAR":"0.00019806000000","TLE_LINE1":"1 48396U 21038AV  22032.90628496  .00002670  00000-0  19806-3 0  9999","LAUNCH_DATE":"2021-05-04","EPOCH":"2022-02-01T21:45:03.020544","NORAD_CAT_ID":"48396","INCLINATION":"53.0549","OBJECT_NAME":"STARLINK-2575","REF_FRAME":"TEME","SEMIMAJOR_AXIS":"6925.339","MEAN_ANOMALY":"291.4373","SITE":"AFETR","PERIAPSIS":"545.907","MEAN_ELEMENT_THEORY":"SGP4","CLASSIFICATION_TYPE":"U","EPHEMERIS_TYPE":"0","OBJECT_TYPE":"PAYLOAD","ECCENTRICITY":"0.00018720","DECAY_DATE":null,"TLE_LINE2":"2 48396  53.0549 220.9376 0001872  68.6816 291.4373 15.06403225 42924","OBJECT_ID":"2021-038AV","PERIOD":"95.592","MEAN_MOTION_DDOT":"0.0000000000000","ARG_OF_PERICENTER":"68.6816","MEAN_MOTION_DOT":"0.00002670","FILE":"3289675","COUNTRY_CODE":"US"}];
